{"fetched_at":"2026-07-15T17:47:13.894Z","source":"https://celestrak.org/NORAD/elements/gp.php?NAME=HULIANWANG&FORMAT=JSON","constellation":"guowang","records":[{"OBJECT_NAME":"HULIANWANG DIGUI-108","OBJECT_ID":"2025-285D","EPOCH":"2026-07-14T23:12:53.646912","CLASSIFICATION_TYPE":"U","MEAN_MOTION":13.29325816,"ECCENTRICITY":0.0000991,"INCLINATION":50.0056,"RA_OF_ASC_NODE":46.3641,"ARG_OF_PERICENTER":36.2619,"MEAN_ANOMALY":323.8321,"EPHEMERIS_TYPE":0,"NORAD_CAT_ID":66918,"ELEMENT_SET_NO":999,"REV_AT_EPOCH":2975,"BSTAR":0.000043505,"MEAN_MOTION_DOT":-0.00000104,"MEAN_MOTION_DDOT":0},{"OBJECT_NAME":"HULIANWANG DIGUI-109","OBJECT_ID":"2025-285E","EPOCH":"2026-07-14T23:00:41.741280","CLASSIFICATION_TYPE":"U","MEAN_MOTION":13.29316511,"ECCENTRICITY":0.0000936,"INCLINATION":50.0083,"RA_OF_ASC_NODE":46.3646,"ARG_OF_PERICENTER":44.9364,"MEAN_ANOMALY":315.1583,"EPHEMERIS_TYPE":0,"NORAD_CAT_ID":66919,"ELEMENT_SET_NO":999,"REV_AT_EPOCH":2976,"BSTAR":0.000040823,"MEAN_MOTION_DOT":-0.00000105,"MEAN_MOTION_DDOT":0},{"OBJECT_NAME":"HULIANWANG DIGUI-110","OBJECT_ID":"2025-285F","EPOCH":"2026-07-15T00:37:09.259104","CLASSIFICATION_TYPE":"U","MEAN_MOTION":13.29326401,"ECCENTRICITY":0.0000909,"INCLINATION":50.0115,"RA_OF_ASC_NODE":46.1089,"ARG_OF_PERICENTER":38.4014,"MEAN_ANOMALY":321.6922,"EPHEMERIS_TYPE":0,"NORAD_CAT_ID":66920,"ELEMENT_SET_NO":999,"REV_AT_EPOCH":2976,"BSTAR":0.000056337,"MEAN_MOTION_DOT":-9.8e-7,"MEAN_MOTION_DDOT":0},{"OBJECT_NAME":"HULIANWANG DIGUI-111","OBJECT_ID":"2025-285G","EPOCH":"2026-07-14T22:36:55.077696","CLASSIFICATION_TYPE":"U","MEAN_MOTION":13.29325942,"ECCENTRICITY":0.0000919,"INCLINATION":50.013,"RA_OF_ASC_NODE":46.3651,"ARG_OF_PERICENTER":38.0327,"MEAN_ANOMALY":322.061,"EPHEMERIS_TYPE":0,"NORAD_CAT_ID":66921,"ELEMENT_SET_NO":999,"REV_AT_EPOCH":2975,"BSTAR":0.000064979,"MEAN_MOTION_DOT":-9.4e-7,"MEAN_MOTION_DDOT":0},{"OBJECT_NAME":"HULIANWANG DIGUI-112","OBJECT_ID":"2025-285H","EPOCH":"2026-07-15T00:13:05.224800","CLASSIFICATION_TYPE":"U","MEAN_MOTION":13.29325885,"ECCENTRICITY":0.0000975,"INCLINATION":50.0094,"RA_OF_ASC_NODE":45.9878,"ARG_OF_PERICENTER":35.3971,"MEAN_ANOMALY":324.6965,"EPHEMERIS_TYPE":0,"NORAD_CAT_ID":66922,"ELEMENT_SET_NO":999,"REV_AT_EPOCH":2976,"BSTAR":0.000073986,"MEAN_MOTION_DOT":-9e-7,"MEAN_MOTION_DDOT":0},{"OBJECT_NAME":"HULIANWANG DIGUI-113","OBJECT_ID":"2025-285J","EPOCH":"2026-07-15T00:01:12.455040","CLASSIFICATION_TYPE":"U","MEAN_MOTION":13.29324279,"ECCENTRICITY":0.0000972,"INCLINATION":50.0101,"RA_OF_ASC_NODE":45.9617,"ARG_OF_PERICENTER":34.6896,"MEAN_ANOMALY":325.404,"EPHEMERIS_TYPE":0,"NORAD_CAT_ID":66923,"ELEMENT_SET_NO":999,"REV_AT_EPOCH":2976,"BSTAR":0.000050942,"MEAN_MOTION_DOT":-0.000001,"MEAN_MOTION_DDOT":0},{"OBJECT_NAME":"HULIANWANG DIGUI-114","OBJECT_ID":"2025-287A","EPOCH":"2026-07-15T04:05:04.790976","CLASSIFICATION_TYPE":"U","MEAN_MOTION":13.24413376,"ECCENTRICITY":0.0002288,"INCLINATION":86.493,"RA_OF_ASC_NODE":272.9116,"ARG_OF_PERICENTER":98.6716,"MEAN_ANOMALY":261.4677,"EPHEMERIS_TYPE":0,"NORAD_CAT_ID":66953,"ELEMENT_SET_NO":999,"REV_AT_EPOCH":2904,"BSTAR":0.00011419,"MEAN_MOTION_DOT":6.4e-7,"MEAN_MOTION_DDOT":0},{"OBJECT_NAME":"HULIANWANG DIGUI-115","OBJECT_ID":"2025-287B","EPOCH":"2026-07-15T03:53:45.665376","CLASSIFICATION_TYPE":"U","MEAN_MOTION":13.24400854,"ECCENTRICITY":0.0002567,"INCLINATION":86.4946,"RA_OF_ASC_NODE":272.9435,"ARG_OF_PERICENTER":96.8173,"MEAN_ANOMALY":263.3253,"EPHEMERIS_TYPE":0,"NORAD_CAT_ID":66954,"ELEMENT_SET_NO":999,"REV_AT_EPOCH":2904,"BSTAR":0.00013127,"MEAN_MOTION_DOT":7.1e-7,"MEAN_MOTION_DDOT":0},{"OBJECT_NAME":"HULIANWANG DIGUI-116","OBJECT_ID":"2025-287C","EPOCH":"2026-07-15T03:43:19.820928","CLASSIFICATION_TYPE":"U","MEAN_MOTION":13.24412982,"ECCENTRICITY":0.0002395,"INCLINATION":86.4885,"RA_OF_ASC_NODE":272.8064,"ARG_OF_PERICENTER":96.804,"MEAN_ANOMALY":263.3366,"EPHEMERIS_TYPE":0,"NORAD_CAT_ID":66955,"ELEMENT_SET_NO":999,"REV_AT_EPOCH":2904,"BSTAR":0.00011258,"MEAN_MOTION_DOT":6.3e-7,"MEAN_MOTION_DDOT":0},{"OBJECT_NAME":"HULIANWANG DIGUI-117","OBJECT_ID":"2025-287D","EPOCH":"2026-07-15T03:32:29.876928","CLASSIFICATION_TYPE":"U","MEAN_MOTION":13.24412636,"ECCENTRICITY":0.0001038,"INCLINATION":86.4946,"RA_OF_ASC_NODE":272.9376,"ARG_OF_PERICENTER":62.9284,"MEAN_ANOMALY":297.1956,"EPHEMERIS_TYPE":0,"NORAD_CAT_ID":66956,"ELEMENT_SET_NO":999,"REV_AT_EPOCH":2904,"BSTAR":0.000088569,"MEAN_MOTION_DOT":5.3e-7,"MEAN_MOTION_DDOT":0},{"OBJECT_NAME":"HULIANWANG DIGUI-118","OBJECT_ID":"2025-287E","EPOCH":"2026-07-15T03:21:36.204768","CLASSIFICATION_TYPE":"U","MEAN_MOTION":13.24412105,"ECCENTRICITY":0.0002332,"INCLINATION":86.4921,"RA_OF_ASC_NODE":272.881,"ARG_OF_PERICENTER":98.902,"MEAN_ANOMALY":261.2378,"EPHEMERIS_TYPE":0,"NORAD_CAT_ID":66957,"ELEMENT_SET_NO":999,"REV_AT_EPOCH":2904,"BSTAR":0.000062277,"MEAN_MOTION_DOT":4.1e-7,"MEAN_MOTION_DDOT":0},{"OBJECT_NAME":"HULIANWANG DIGUI-119","OBJECT_ID":"2025-295A","EPOCH":"2026-07-15T04:45:45.341280","CLASSIFICATION_TYPE":"U","MEAN_MOTION":13.29324537,"ECCENTRICITY":0.0001117,"INCLINATION":50.0041,"RA_OF_ASC_NODE":285.3201,"ARG_OF_PERICENTER":190.5599,"MEAN_ANOMALY":169.525,"EPHEMERIS_TYPE":0,"NORAD_CAT_ID":67059,"ELEMENT_SET_NO":999,"REV_AT_EPOCH":2922,"BSTAR":0.000082402,"MEAN_MOTION_DOT":-8.6e-7,"MEAN_MOTION_DDOT":0},{"OBJECT_NAME":"HULIANWANG DIGUI-120","OBJECT_ID":"2025-295B","EPOCH":"2026-07-14T12:07:23.125728","CLASSIFICATION_TYPE":"U","MEAN_MOTION":13.29324443,"ECCENTRICITY":0.00012073,"INCLINATION":50.0058,"RA_OF_ASC_NODE":287.6694,"ARG_OF_PERICENTER":189.2261,"MEAN_ANOMALY":170.859,"EPHEMERIS_TYPE":0,"NORAD_CAT_ID":67060,"ELEMENT_SET_NO":999,"REV_AT_EPOCH":2913,"BSTAR":0.000033014933,"MEAN_MOTION_DOT":-0.00000109,"MEAN_MOTION_DDOT":0},{"OBJECT_NAME":"HULIANWANG DIGUI-121","OBJECT_ID":"2025-295C","EPOCH":"2026-07-15T04:33:44.044704","CLASSIFICATION_TYPE":"U","MEAN_MOTION":13.29325693,"ECCENTRICITY":0.0001164,"INCLINATION":50.0019,"RA_OF_ASC_NODE":285.2127,"ARG_OF_PERICENTER":189.8234,"MEAN_ANOMALY":170.2616,"EPHEMERIS_TYPE":0,"NORAD_CAT_ID":67061,"ELEMENT_SET_NO":999,"REV_AT_EPOCH":2922,"BSTAR":0.00001153,"MEAN_MOTION_DOT":-0.00000119,"MEAN_MOTION_DDOT":0},{"OBJECT_NAME":"HULIANWANG DIGUI-122","OBJECT_ID":"2025-295D","EPOCH":"2026-07-14T15:31:45.640128","CLASSIFICATION_TYPE":"U","MEAN_MOTION":13.29324383,"ECCENTRICITY":0.00011371,"INCLINATION":50.0042,"RA_OF_ASC_NODE":287.0774,"ARG_OF_PERICENTER":188.1072,"MEAN_ANOMALY":171.9782,"EPHEMERIS_TYPE":0,"NORAD_CAT_ID":67062,"ELEMENT_SET_NO":999,"REV_AT_EPOCH":2915,"BSTAR":0.000090296627,"MEAN_MOTION_DOT":-8.2e-7,"MEAN_MOTION_DDOT":0},{"OBJECT_NAME":"HULIANWANG DIGUI-123","OBJECT_ID":"2025-295E","EPOCH":"2026-07-14T15:19:48.829440","CLASSIFICATION_TYPE":"U","MEAN_MOTION":13.29323956,"ECCENTRICITY":0.0001041,"INCLINATION":50.0043,"RA_OF_ASC_NODE":287.0378,"ARG_OF_PERICENTER":188.3234,"MEAN_ANOMALY":171.7621,"EPHEMERIS_TYPE":0,"NORAD_CAT_ID":67063,"ELEMENT_SET_NO":999,"REV_AT_EPOCH":2915,"BSTAR":0.000090788331,"MEAN_MOTION_DOT":-8.2e-7,"MEAN_MOTION_DDOT":0}]}
