HULIANWANG DIGUI-108    
1 66918U 25285D   26195.96728758 -.00000104  00000+0  43505-4 0  9993
2 66918  50.0056  46.3641 0000991  36.2619 323.8321 13.29325816 29753
HULIANWANG DIGUI-109    
1 66919U 25285E   26195.95881645 -.00000105  00000+0  40823-4 0  9999
2 66919  50.0083  46.3646 0000936  44.9364 315.1583 13.29316511 29768
HULIANWANG DIGUI-110    
1 66920U 25285F   26196.02580161 -.00000098  00000+0  56337-4 0  9997
2 66920  50.0115  46.1089 0000909  38.4014 321.6922 13.29326401 29763
HULIANWANG DIGUI-111    
1 66921U 25285G   26195.94230414 -.00000094  00000+0  64979-4 0  9998
2 66921  50.0130  46.3651 0000919  38.0327 322.0610 13.29325942 29759
HULIANWANG DIGUI-112    
1 66922U 25285H   26196.00908825 -.00000090  00000+0  73986-4 0  9999
2 66922  50.0094  45.9878 0000975  35.3971 324.6965 13.29325885 29760
HULIANWANG DIGUI-113    
1 66923U 25285J   26196.00083860 -.00000100  00000+0  50942-4 0  9992
2 66923  50.0101  45.9617 0000972  34.6896 325.4040 13.29324279 29765
HULIANWANG DIGUI-114    
1 66953U 25287A   26196.17019434  .00000064  00000+0  11419-3 0  9994
2 66953  86.4930 272.9116 0002288  98.6716 261.4677 13.24413376 29048
HULIANWANG DIGUI-115    
1 66954U 25287B   26196.16233409  .00000071  00000+0  13127-3 0  9990
2 66954  86.4946 272.9435 0002567  96.8173 263.3253 13.24400854 29045
HULIANWANG DIGUI-116    
1 66955U 25287C   26196.15509052  .00000063  00000+0  11258-3 0  9994
2 66955  86.4885 272.8064 0002395  96.8040 263.3366 13.24412982 29047
HULIANWANG DIGUI-117    
1 66956U 25287D   26196.14756802  .00000053  00000+0  88569-4 0  9990
2 66956  86.4946 272.9376 0001038  62.9284 297.1956 13.24412636 29046
HULIANWANG DIGUI-118    
1 66957U 25287E   26196.14000237  .00000041  00000+0  62277-4 0  9990
2 66957  86.4921 272.8810 0002332  98.9020 261.2378 13.24412105 29048
HULIANWANG DIGUI-119    
1 67059U 25295A   26196.19844145 -.00000086  00000+0  82402-4 0  9994
2 67059  50.0041 285.3201 0001117 190.5599 169.5250 13.29324537 29220
HULIANWANG DIGUI-120    
1 67060U 25295B   26195.50512877 -.00000109  00000+0  33015-4 0  9996
2 67060  50.0058 287.6694 0001207 189.2261 170.8590 13.29324443 29130
HULIANWANG DIGUI-121    
1 67061U 25295C   26196.19009311 -.00000119  00000+0  11530-4 0  9996
2 67061  50.0019 285.2127 0001164 189.8234 170.2616 13.29325693 29222
HULIANWANG DIGUI-122    
1 67062U 25295D   26195.64705602 -.00000082  00000+0  90297-4 0  9998
2 67062  50.0042 287.0774 0001137 188.1072 171.9782 13.29324383 29158
HULIANWANG DIGUI-123    
1 67063U 25295E   26195.63875960 -.00000082  00000+0  90788-4 0  9998
2 67063  50.0043 287.0378 0001041 188.3234 171.7621 13.29323956 29151
